{"type": "FeatureCollection", "features": [ {"type": "Feature", "properties": {"norad_id": 66423, "name": "STARLINK-35618", "group": "last-30-days", "lat": -8.387103998099846, "lon": 97.66602083766375, "alt_km": 415.8927499961728, "timestamp": "2025-12-02T13:52:16.064508+00:00", "meta": {"OBJECT_NAME": "STARLINK-35618", "OBJECT_ID": "2025-259B", "EPOCH": "2025-12-02T06:00:02.999808", "MEAN_MOTION": 15.50486671, "ECCENTRICITY": 0.00014602, "INCLINATION": 42.9993, "RA_OF_ASC_NODE": 108.6883, "ARG_OF_PERICENTER": 255.4991, "MEAN_ANOMALY": 59.5613, "EPHEMERIS_TYPE": 0, "CLASSIFICATION_TYPE": "U", "NORAD_CAT_ID": 66423, "ELEMENT_SET_NO": 999, "REV_AT_EPOCH": 459, "BSTAR": 0.0018516133, "MEAN_MOTION_DOT": 0.00109454, "MEAN_MOTION_DDOT": 0}, "tle": {"line1": "1 66423U 25259B   25336.25003472  .00109454  00000+0  18516-2 0  9991", "line2": "2 66423  42.9993 108.6883 0001460 255.4991  59.5613 15.50486671  4599"}}, "geometry": {"type": "Point", "coordinates": [97.66602083766375, -8.387103998099846]}}, {"type": "Feature", "properties": {"norad_id": 66424, "name": "STARLINK-35588", "group": "last-30-days", "lat": -7.0398505007440715, "lon": 99.15085034470826, "alt_km": 416.03509243895314, "timestamp": "2025-12-02T13:52:16.064518+00:00", "meta": {"OBJECT_NAME": "STARLINK-35588", "OBJECT_ID": "2025-259C", "EPOCH": "2025-12-02T06:00:02.999808", "MEAN_MOTION": 15.5060969, "ECCENTRICITY": 0.00010565, "INCLINATION": 42.9996, "RA_OF_ASC_NODE": 108.6849, "ARG_OF_PERICENTER": 240.9889, "MEAN_ANOMALY": 76.0198, "EPHEMERIS_TYPE": 0, "CLASSIFICATION_TYPE": "U", "NORAD_CAT_ID": 66424, "ELEMENT_SET_NO": 999, "REV_AT_EPOCH": 459, "BSTAR": -0.0021554095, "MEAN_MOTION_DOT": -0.00124924, "MEAN_MOTION_DDOT": 0}, "tle": {"line1": "1 66424U 25259C   25336.25003472 -.00124924  00000+0 -21554-2 0  9999", "line2": "2 66424  42.9996 108.6849 0001056 240.9889  76.0198 15.50609690  4591"}}, "geometry": {"type": "Point", "coordinates": [99.15085034470826, -7.0398505007440715]}}, {"type": "Feature", "properties": {"norad_id": 66425, "name": "STARLINK-35555", "group": "last-30-days", "lat": -5.7914771015798605, "lon": 100.51030436964153, "alt_km": 415.57770920298026, "timestamp": "2025-12-02T13:52:16.064531+00:00", "meta": {"OBJECT_NAME": "STARLINK-35555", "OBJECT_ID": "2025-259D", "EPOCH": "2025-12-02T06:00:02.999808", "MEAN_MOTION": 15.50491251, "ECCENTRICITY": 0.00013744, "INCLINATION": 42.9993, "RA_OF_ASC_NODE": 108.6776, "ARG_OF_PERICENTER": 259.2587, "MEAN_ANOMALY": 59.6395, "EPHEMERIS_TYPE": 0, "CLASSIFICATION_TYPE": "U", "NORAD_CAT_ID": 66425, "ELEMENT_SET_NO": 999, "REV_AT_EPOCH": 459, "BSTAR": 0.0018790007, "MEAN_MOTION_DOT": 0.0011112, "MEAN_MOTION_DDOT": 0}, "tle": {"line1": "1 66425U 25259D   25336.25003472  .00111120  00000+0  18790-2 0  9990", "line2": "2 66425  42.9993 108.6776 0001374 259.2587  59.6395 15.50491251  4597"}}, "geometry": {"type": "Point", "coordinates": [100.51030436964153, -5.7914771015798605]}}, {"type": "Feature", "properties": {"norad_id": 66426, "name": "STARLINK-35589", "group": "last-30-days", "lat": -4.503693286373668, "lon": 101.90702173661997, "alt_km": 415.48706258984294, "timestamp": "2025-12-02T13:52:16.064543+00:00", "meta": {"OBJECT_NAME": "STARLINK-35589", "OBJECT_ID": "2025-259E", "EPOCH": "2025-12-02T06:00:02.999808", "MEAN_MOTION": 15.50482062, "ECCENTRICITY": 0.00014178, "INCLINATION": 42.9994, "RA_OF_ASC_NODE": 108.6744, "ARG_OF_PERICENTER": 258.8436, "MEAN_ANOMALY": 61.9628, "EPHEMERIS_TYPE": 0, "CLASSIFICATION_TYPE": "U", "NORAD_CAT_ID": 66426, "ELEMENT_SET_NO": 999, "REV_AT_EPOCH": 459, "BSTAR": 0.0018942374, "MEAN_MOTION_DOT": 0.00112, "MEAN_MOTION_DDOT": 0}, "tle": {"line1": "1 66426U 25259E   25336.25003472  .00112000  00000+0  18942-2 0  9998", "line2": "2 66426  42.9994 108.6744 0001417 258.8436  61.9628 15.50482062  4595"}}, "geometry": {"type": "Point", "coordinates": [101.90702173661997, -4.503693286373668]}}, {"type": "Feature", "properties": {"norad_id": 66427, "name": "STARLINK-35611", "group": "last-30-days", "lat": -3.1936817624054035, "lon": 103.31730593164296, "alt_km": 415.43451067597834, "timestamp": "2025-12-02T13:52:16.064553+00:00", "meta": {"OBJECT_NAME": "STARLINK-35611", "OBJECT_ID": "2025-259F", "EPOCH": "2025-12-02T06:00:02.999808", "MEAN_MOTION": 15.50486045, "ECCENTRICITY": 0.00015176, "INCLINATION": 42.9993, "RA_OF_ASC_NODE": 108.6687, "ARG_OF_PERICENTER": 254.4808, "MEAN_ANOMALY": 68.2478, "EPHEMERIS_TYPE": 0, "CLASSIFICATION_TYPE": "U", "NORAD_CAT_ID": 66427, "ELEMENT_SET_NO": 999, "REV_AT_EPOCH": 459, "BSTAR": 0.0018432108, "MEAN_MOTION_DOT": 0.00108946, "MEAN_MOTION_DDOT": 0}, "tle": {"line1": "1 66427U 25259F   25336.25003472  .00108946  00000+0  18432-2 0  9997", "line2": "2 66427  42.9993 108.6687 0001517 254.4808  68.2478 15.50486045  4595"}}, "geometry": {"type": "Point", "coordinates": [103.31730593164296, -3.1936817624054035]}}, {"type": "Feature", "properties": {"norad_id": 66428, "name": "STARLINK-35610", "group": "last-30-days", "lat": -1.8950130795351863, "lon": 104.71074619877123, "alt_km": 415.2739182767409, "timestamp": "2025-12-02T13:52:16.064563+00:00", "meta": {"OBJECT_NAME": "STARLINK-35610", "OBJECT_ID": "2025-259G", "EPOCH": "2025-12-02T06:00:02.999808", "MEAN_MOTION": 15.50483155, "ECCENTRICITY": 0.00014, "INCLINATION": 42.9994, "RA_OF_ASC_NODE": 108.664, "ARG_OF_PERICENTER": 256.1241, "MEAN_ANOMALY": 68.5167, "EPHEMERIS_TYPE": 0, "CLASSIFICATION_TYPE": "U", "NORAD_CAT_ID": 66428, "ELEMENT_SET_NO": 999, "REV_AT_EPOCH": 459, "BSTAR": 0.0018315032, "MEAN_MOTION_DOT": 0.00108231, "MEAN_MOTION_DDOT": 0}, "tle": {"line1": "1 66428U 25259G   25336.25003472  .00108231  00000+0  18315-2 0  9995", "line2": "2 66428  42.9994 108.6640 0001400 256.1241  68.5167 15.50483155  4594"}}, "geometry": {"type": "Point", "coordinates": [104.71074619877123, -1.8950130795351863]}}, {"type": "Feature", "properties": {"norad_id": 66429, "name": "STARLINK-35533", "group": "last-30-days", "lat": -0.5871349055604489, "lon": 106.109249145915, "alt_km": 415.1529514774729, "timestamp": "2025-12-02T13:52:16.064573+00:00", "meta": {"OBJECT_NAME": "STARLINK-35533", "OBJECT_ID": "2025-259H", "EPOCH": "2025-12-02T06:00:02.999808", "MEAN_MOTION": 15.50482186, "ECCENTRICITY": 0.00014494, "INCLINATION": 42.9995, "RA_OF_ASC_NODE": 108.6578, "ARG_OF_PERICENTER": 255.5858, "MEAN_ANOMALY": 70.9741, "EPHEMERIS_TYPE": 0, "CLASSIFICATION_TYPE": "U", "NORAD_CAT_ID": 66429, "ELEMENT_SET_NO": 999, "REV_AT_EPOCH": 459, "BSTAR": 0.0018555795, "MEAN_MOTION_DOT": 0.00109675, "MEAN_MOTION_DDOT": 0}, "tle": {"line1": "1 66429U 25259H   25336.25003472  .00109675  00000+0  18556-2 0  9996", "line2": "2 66429  42.9995 108.6578 0001449 255.5858  70.9741 15.50482186  4594"}}, "geometry": {"type": "Point", "coordinates": [106.109249145915, -0.5871349055604489]}}, {"type": "Feature", "properties": {"norad_id": 66430, "name": "STARLINK-35470", "group": "last-30-days", "lat": 0.7102241520331438, "lon": 107.49813654156127, "alt_km": 415.0145245003896, "timestamp": "2025-12-02T13:52:16.064585+00:00", "meta": {"OBJECT_NAME": "STARLINK-35470", "OBJECT_ID": "2025-259J", "EPOCH": "2025-12-02T06:00:02.999808", "MEAN_MOTION": 15.50473937, "ECCENTRICITY": 0.00014702, "INCLINATION": 42.9994, "RA_OF_ASC_NODE": 108.6543, "ARG_OF_PERICENTER": 257.2536, "MEAN_ANOMALY": 71.2187, "EPHEMERIS_TYPE": 0, "CLASSIFICATION_TYPE": "U", "NORAD_CAT_ID": 66430, "ELEMENT_SET_NO": 999, "REV_AT_EPOCH": 459, "BSTAR": 0.0018561519, "MEAN_MOTION_DOT": 0.00109676, "MEAN_MOTION_DDOT": 0}, "tle": {"line1": "1 66430U 25259J   25336.25003472  .00109676  00000+0  18562-2 0  9996", "line2": "2 66430  42.9994 108.6543 0001470 257.2536  71.2187 15.50473937  4595"}}, "geometry": {"type": "Point", "coordinates": [107.49813654156127, 0.7102241520331438]}}, {"type": "Feature", "properties": {"norad_id": 66431, "name": "STARLINK-35439", "group": "last-30-days", "lat": 2.01891977621338, "lon": 108.89792341454863, "alt_km": 414.9336099884804, "timestamp": "2025-12-02T13:52:16.064595+00:00", "meta": {"OBJECT_NAME": "STARLINK-35439", "OBJECT_ID": "2025-259K", "EPOCH": "2025-12-02T06:00:02.999808", "MEAN_MOTION": 15.50475445, "ECCENTRICITY": 0.00014742, "INCLINATION": 42.9994, "RA_OF_ASC_NODE": 108.6483, "ARG_OF_PERICENTER": 253.319, "MEAN_ANOMALY": 77.0718, "EPHEMERIS_TYPE": 0, "CLASSIFICATION_TYPE": "U", "NORAD_CAT_ID": 66431, "ELEMENT_SET_NO": 999, "REV_AT_EPOCH": 459, "BSTAR": 0.0018616887, "MEAN_MOTION_DOT": 0.00110015, "MEAN_MOTION_DDOT": 0}, "tle": {"line1": "1 66431U 25259K   25336.25003472  .00110015  00000+0  18617-2 0  9997", "line2": "2 66431  42.9994 108.6483 0001474 253.3190  77.0718 15.50475445  4596"}}, "geometry": {"type": "Point", "coordinates": [108.89792341454863, 2.01891977621338]}}, {"type": "Feature", "properties": {"norad_id": 66432, "name": "STARLINK-35446", "group": "last-30-days", "lat": 3.320957311294362, "lon": 110.29471612355734, "alt_km": 414.82571840616674, "timestamp": "2025-12-02T13:52:16.064605+00:00", "meta": {"OBJECT_NAME": "STARLINK-35446", "OBJECT_ID": "2025-259L", "EPOCH": "2025-12-02T06:00:02.999808", "MEAN_MOTION": 15.50473401, "ECCENTRICITY": 0.000156, "INCLINATION": 42.9994, "RA_OF_ASC_NODE": 108.6429, "ARG_OF_PERICENTER": 252.8164, "MEAN_ANOMALY": 79.4887, "EPHEMERIS_TYPE": 0, "CLASSIFICATION_TYPE": "U", "NORAD_CAT_ID": 66432, "ELEMENT_SET_NO": 999, "REV_AT_EPOCH": 459, "BSTAR": 0.0018334643, "MEAN_MOTION_DOT": 0.00108311, "MEAN_MOTION_DDOT": 0}, "tle": {"line1": "1 66432U 25259L   25336.25003472  .00108311  00000+0  18335-2 0  9991", "line2": "2 66432  42.9994 108.6429 0001560 252.8164  79.4887 15.50473401  4591"}}, "geometry": {"type": "Point", "coordinates": [110.29471612355734, 3.320957311294362]}}]}